[{"OBJECT_NAME":"ISS (ZARYA)","OBJECT_ID":"1998-067A","EPOCH":"2025-10-04T20:28:32.738016","MEAN_MOTION":15.49682341,"ECCENTRICITY":9.33e-5,"INCLINATION":51.6326,"RA_OF_ASC_NODE":123.5365,"ARG_OF_PERICENTER":203.2133,"MEAN_ANOMALY":156.8813,"EPHEMERIS_TYPE":0,"CLASSIFICATION_TYPE":"U","NORAD_CAT_ID":25544,"ELEMENT_SET_NO":999,"REV_AT_EPOCH":53217,"BSTAR":0.00023245,"MEAN_MOTION_DOT":0.00012686,"MEAN_MOTION_DDOT":0},{"OBJECT_NAME":"CSS (TIANHE)","OBJECT_ID":"2021-035A","EPOCH":"2025-10-04T19:57:10.895040","MEAN_MOTION":15.61045789,"ECCENTRICITY":0.0002234,"INCLINATION":41.4644,"RA_OF_ASC_NODE":75.5918,"ARG_OF_PERICENTER":189.4846,"MEAN_ANOMALY":170.5951,"EPHEMERIS_TYPE":0,"CLASSIFICATION_TYPE":"U","NORAD_CAT_ID":48274,"ELEMENT_SET_NO":999,"REV_AT_EPOCH":25326,"BSTAR":0.00046942,"MEAN_MOTION_DOT":0.00040515,"MEAN_MOTION_DDOT":0},{"OBJECT_NAME":"ISS (NAUKA)","OBJECT_ID":"2021-066A","EPOCH":"2025-10-03T11:58:26.714784","MEAN_MOTION":15.4964818,"ECCENTRICITY":0.0001007,"INCLINATION":51.6325,"RA_OF_ASC_NODE":130.2428,"ARG_OF_PERICENTER":193.4972,"MEAN_ANOMALY":166.599,"EPHEMERIS_TYPE":0,"CLASSIFICATION_TYPE":"U","NORAD_CAT_ID":49044,"ELEMENT_SET_NO":999,"REV_AT_EPOCH":23044,"BSTAR":0.00023996803,"MEAN_MOTION_DOT":0.00013095,"MEAN_MOTION_DDOT":0},{"OBJECT_NAME":"FREGAT DEB","OBJECT_ID":"2011-037PF","EPOCH":"2025-10-04T17:25:49.378944","MEAN_MOTION":12.33646364,"ECCENTRICITY":0.0925494,"INCLINATION":51.626,"RA_OF_ASC_NODE":43.5388,"ARG_OF_PERICENTER":74.0575,"MEAN_ANOMALY":296.0173,"EPHEMERIS_TYPE":0,"CLASSIFICATION_TYPE":"U","NORAD_CAT_ID":49271,"ELEMENT_SET_NO":999,"REV_AT_EPOCH":19341,"BSTAR":0.016797,"MEAN_MOTION_DOT":8.965e-5,"MEAN_MOTION_DDOT":0},{"OBJECT_NAME":"CSS (WENTIAN)","OBJECT_ID":"2022-085A","EPOCH":"2025-10-03T13:14:36.663936","MEAN_MOTION":15.60943045,"ECCENTRICITY":0.00021242,"INCLINATION":41.4641,"RA_OF_ASC_NODE":83.382,"ARG_OF_PERICENTER":178.8419,"MEAN_ANOMALY":181.2425,"EPHEMERIS_TYPE":0,"CLASSIFICATION_TYPE":"U","NORAD_CAT_ID":53239,"ELEMENT_SET_NO":999,"REV_AT_EPOCH":17384,"BSTAR":0.00047744388,"MEAN_MOTION_DOT":0.00041052,"MEAN_MOTION_DDOT":0},{"OBJECT_NAME":"CSS (MENGTIAN)","OBJECT_ID":"2022-143A","EPOCH":"2025-10-03T13:14:36.663936","MEAN_MOTION":15.60943045,"ECCENTRICITY":0.00021242,"INCLINATION":41.4641,"RA_OF_ASC_NODE":83.382,"ARG_OF_PERICENTER":178.8419,"MEAN_ANOMALY":181.2425,"EPHEMERIS_TYPE":0,"CLASSIFICATION_TYPE":"U","NORAD_CAT_ID":54216,"ELEMENT_SET_NO":999,"REV_AT_EPOCH":15864,"BSTAR":0.00047744388,"MEAN_MOTION_DOT":0.00041052,"MEAN_MOTION_DDOT":0},{"OBJECT_NAME":"SOYUZ-MS 27","OBJECT_ID":"2025-072A","EPOCH":"2025-10-03T11:58:26.714784","MEAN_MOTION":15.4964818,"ECCENTRICITY":0.0001007,"INCLINATION":51.6325,"RA_OF_ASC_NODE":130.2428,"ARG_OF_PERICENTER":193.4972,"MEAN_ANOMALY":166.599,"EPHEMERIS_TYPE":0,"CLASSIFICATION_TYPE":"U","NORAD_CAT_ID":63520,"ELEMENT_SET_NO":999,"REV_AT_EPOCH":2020,"BSTAR":0.00023996803,"MEAN_MOTION_DOT":0.00013095,"MEAN_MOTION_DDOT":0},{"OBJECT_NAME":"SHENZHOU-20 (SZ-20)","OBJECT_ID":"2025-082A","EPOCH":"2025-10-03T13:14:36.663936","MEAN_MOTION":15.60943045,"ECCENTRICITY":0.00021242,"INCLINATION":41.4641,"RA_OF_ASC_NODE":83.382,"ARG_OF_PERICENTER":178.8419,"MEAN_ANOMALY":181.2425,"EPHEMERIS_TYPE":0,"CLASSIFICATION_TYPE":"U","NORAD_CAT_ID":63632,"ELEMENT_SET_NO":999,"REV_AT_EPOCH":23717,"BSTAR":0.00047744388,"MEAN_MOTION_DOT":0.00041052,"MEAN_MOTION_DDOT":0},{"OBJECT_NAME":"PROGRESS-MS 31","OBJECT_ID":"2025-146A","EPOCH":"2025-10-03T11:58:26.714784","MEAN_MOTION":15.4964818,"ECCENTRICITY":0.0001007,"INCLINATION":51.6325,"RA_OF_ASC_NODE":130.2428,"ARG_OF_PERICENTER":193.4972,"MEAN_ANOMALY":166.599,"EPHEMERIS_TYPE":0,"CLASSIFICATION_TYPE":"U","NORAD_CAT_ID":64751,"ELEMENT_SET_NO":999,"REV_AT_EPOCH":675,"BSTAR":0.00023996803,"MEAN_MOTION_DOT":0.00013095,"MEAN_MOTION_DDOT":0},{"OBJECT_NAME":"TIANZHOU-9","OBJECT_ID":"2025-149A","EPOCH":"2025-10-03T13:14:36.663936","MEAN_MOTION":15.60943045,"ECCENTRICITY":0.00021242,"INCLINATION":41.4641,"RA_OF_ASC_NODE":83.382,"ARG_OF_PERICENTER":178.8419,"MEAN_ANOMALY":181.2425,"EPHEMERIS_TYPE":0,"CLASSIFICATION_TYPE":"U","NORAD_CAT_ID":64786,"ELEMENT_SET_NO":999,"REV_AT_EPOCH":511,"BSTAR":0.00047744388,"MEAN_MOTION_DOT":0.00041052,"MEAN_MOTION_DDOT":0},{"OBJECT_NAME":"CREW DRAGON 11","OBJECT_ID":"2025-166A","EPOCH":"2025-10-03T11:58:26.714784","MEAN_MOTION":15.4964818,"ECCENTRICITY":0.0001007,"INCLINATION":51.6325,"RA_OF_ASC_NODE":130.2428,"ARG_OF_PERICENTER":193.4972,"MEAN_ANOMALY":166.599,"EPHEMERIS_TYPE":0,"CLASSIFICATION_TYPE":"U","NORAD_CAT_ID":65077,"ELEMENT_SET_NO":999,"REV_AT_EPOCH":214,"BSTAR":0.00023996803,"MEAN_MOTION_DOT":0.00013095,"MEAN_MOTION_DDOT":0},{"OBJECT_NAME":"DRAGON CRS-33","OBJECT_ID":"2025-186A","EPOCH":"2025-10-03T11:58:26.714784","MEAN_MOTION":15.4964818,"ECCENTRICITY":0.0001007,"INCLINATION":51.6325,"RA_OF_ASC_NODE":130.2428,"ARG_OF_PERICENTER":193.4972,"MEAN_ANOMALY":166.599,"EPHEMERIS_TYPE":0,"CLASSIFICATION_TYPE":"U","NORAD_CAT_ID":65304,"ELEMENT_SET_NO":999,"REV_AT_EPOCH":11,"BSTAR":0.00023996803,"MEAN_MOTION_DOT":0.00013095,"MEAN_MOTION_DDOT":0},{"OBJECT_NAME":"PROGRESS-MS 32","OBJECT_ID":"2025-204A","EPOCH":"2025-10-03T11:58:26.714784","MEAN_MOTION":15.4964818,"ECCENTRICITY":0.0001007,"INCLINATION":51.6325,"RA_OF_ASC_NODE":130.2428,"ARG_OF_PERICENTER":193.4972,"MEAN_ANOMALY":166.599,"EPHEMERIS_TYPE":0,"CLASSIFICATION_TYPE":"U","NORAD_CAT_ID":65586,"ELEMENT_SET_NO":999,"REV_AT_EPOCH":57,"BSTAR":0.00023996803,"MEAN_MOTION_DOT":0.00013095,"MEAN_MOTION_DDOT":0},{"OBJECT_NAME":"CYGNUS NG-23","OBJECT_ID":"2025-208A","EPOCH":"2025-10-03T11:58:26.714784","MEAN_MOTION":15.4964818,"ECCENTRICITY":0.0001007,"INCLINATION":51.6325,"RA_OF_ASC_NODE":130.2428,"ARG_OF_PERICENTER":193.4972,"MEAN_ANOMALY":166.599,"EPHEMERIS_TYPE":0,"CLASSIFICATION_TYPE":"U","NORAD_CAT_ID":65616,"ELEMENT_SET_NO":999,"REV_AT_EPOCH":22,"BSTAR":0.00023996803,"MEAN_MOTION_DOT":0.00013095,"MEAN_MOTION_DDOT":0},{"OBJECT_NAME":"1998-067XH","OBJECT_ID":"1998-067XH","EPOCH":"2025-10-04T19:51:43.922016","MEAN_MOTION":15.54158263,"ECCENTRICITY":0.0002684,"INCLINATION":51.6314,"RA_OF_ASC_NODE":123.3678,"ARG_OF_PERICENTER":105.6082,"MEAN_ANOMALY":254.5205,"EPHEMERIS_TYPE":0,"CLASSIFICATION_TYPE":"U","NORAD_CAT_ID":65729,"ELEMENT_SET_NO":999,"REV_AT_EPOCH":239,"BSTAR":0.001333,"MEAN_MOTION_DOT":0.00088855,"MEAN_MOTION_DDOT":0},{"OBJECT_NAME":"1998-067XJ","OBJECT_ID":"1998-067XJ","EPOCH":"2025-10-03T14:21:52.429536","MEAN_MOTION":15.55865895,"ECCENTRICITY":0.00025462,"INCLINATION":51.6315,"RA_OF_ASC_NODE":129.4105,"ARG_OF_PERICENTER":254.3381,"MEAN_ANOMALY":105.7329,"EPHEMERIS_TYPE":0,"CLASSIFICATION_TYPE":"U","NORAD_CAT_ID":65730,"ELEMENT_SET_NO":999,"REV_AT_EPOCH":220,"BSTAR":0.0025663593,"MEAN_MOTION_DOT":0.00184864,"MEAN_MOTION_DDOT":0}]
